GLOBALSTAR M063         
1 26081U 00008A   25203.79721363 -.00000076  00000+0  10223-3 0  9999
2 26081  51.9973  17.7877 0005003  34.6388   0.7158 11.86173739161869
GLOBALSTAR M062         
1 26082U 00008B   25203.91616589 -.00000078  00000+0  14797-3 0  9999
2 26082  51.9870 350.7143 0007248 181.1903 346.6030 12.43469870163564
GLOBALSTAR M060         
1 26083U 00008C   25203.61596817 -.00000131  00000+0 -39649-3 0  9992
2 26083  52.0041 316.6181 0003545 187.5026 274.4758 12.17663441156852
GLOBALSTAR M064         
1 26084U 00008D   25204.47449133 -.00000113  00000+0 -42034-3 0  9998
2 26084  52.0030 114.4043 0001530 102.9425 257.1579 11.88534838171522
GLOBALSTAR M065         
1 31571U 07020A   25204.12082578 -.00000117  00000+0 -76474-4 0  9994
2 31571  51.9890 116.8967 0010622  29.1875 111.4719 12.62010179838240
GLOBALSTAR M069         
1 31573U 07020C   25204.46742541 -.00000077  00000+0  14042-3 0  9992
2 31573  51.9948 102.5330 0000483 201.8341 328.8792 12.23447341838509
GLOBALSTAR M072         
1 31574U 07020D   25204.15488759 -.00000040  00000+0  60683-3 0  9999
2 31574  51.9915 256.2180 0000895  52.0405 342.1262 11.91650735836087
GLOBALSTAR M071         
1 31576U 07020F   25203.51572052 -.00000171  00000+0 -78419-3 0  9992
2 31576  52.0056 131.8324 0000422 142.3122  29.3004 12.18256224499246
